CCSDS_OMM_VERS = 2.0
CREATION_DATE  = 
ORIGINATOR     = 

OBJECT_NAME    = UNKNOWN
OBJECT_ID      = 
CENTER_NAME    = EARTH
REF_FRAME      = TEME
TIME_SYSTEM    = UTC
MEAN_ELEMENT_THEORY = SGP/SGP4

EPOCH          = 2026-01-19T02:39:22.222368
MEAN_MOTION    = 14.82657106
ECCENTRICITY   = .0010903
INCLINATION    = 98.3953
RA_OF_ASC_NODE = 250.6619
ARG_OF_PERICENTER = 20.0574
MEAN_ANOMALY   = 340.1064

EPHEMERIS_TYPE = 0
CLASSIFICATION_TYPE = U
NORAD_CAT_ID   = 82381
ELEMENT_SET_NO = 999
REV_AT_EPOCH   = 51634
BSTAR          = .27955E-2
MEAN_MOTION_DOT = .22563E-3
MEAN_MOTION_DDOT = 0

CCSDS_OMM_VERS = 2.0
CREATION_DATE  = 
ORIGINATOR     = 

OBJECT_NAME    = UNKNOWN
OBJECT_ID      = 
CENTER_NAME    = EARTH
REF_FRAME      = TEME
TIME_SYSTEM    = UTC
MEAN_ELEMENT_THEORY = SGP/SGP4

EPOCH          = 2026-01-19T07:13:52.936032
MEAN_MOTION    = 15.04068522
ECCENTRICITY   = .0008539
INCLINATION    = 86.6660
RA_OF_ASC_NODE = 139.3807
ARG_OF_PERICENTER = 40.1726
MEAN_ANOMALY   = 320.0138

EPHEMERIS_TYPE = 0
CLASSIFICATION_TYPE = U
NORAD_CAT_ID   = 82402
ELEMENT_SET_NO = 999
REV_AT_EPOCH   = 46011
BSTAR          = .50882E-3
MEAN_MOTION_DOT = .7075E-4
MEAN_MOTION_DDOT = 0

CCSDS_OMM_VERS = 2.0
CREATION_DATE  = 
ORIGINATOR     = 

OBJECT_NAME    = UNKNOWN
OBJECT_ID      = 
CENTER_NAME    = EARTH
REF_FRAME      = TEME
TIME_SYSTEM    = UTC
MEAN_ELEMENT_THEORY = SGP/SGP4

EPOCH          = 2026-01-16T10:23:10.575456
MEAN_MOTION    = 14.58714109
ECCENTRICITY   = .0054449
INCLINATION    = 74.0067
RA_OF_ASC_NODE = 274.4084
ARG_OF_PERICENTER = 69.8652
MEAN_ANOMALY   = 290.8360

EPHEMERIS_TYPE = 0
CLASSIFICATION_TYPE = U
NORAD_CAT_ID   = 82432
ELEMENT_SET_NO = 999
REV_AT_EPOCH   = 48796
BSTAR          = .26452E-3
MEAN_MOTION_DOT = .1229E-4
MEAN_MOTION_DDOT = 0

CCSDS_OMM_VERS = 2.0
CREATION_DATE  = 
ORIGINATOR     = 

OBJECT_NAME    = UNKNOWN
OBJECT_ID      = 
CENTER_NAME    = EARTH
REF_FRAME      = TEME
TIME_SYSTEM    = UTC
MEAN_ELEMENT_THEORY = SGP/SGP4

EPOCH          = 2026-01-18T21:07:10.466400
MEAN_MOTION    = 15.04231798
ECCENTRICITY   = .0010455
INCLINATION    = 85.8725
RA_OF_ASC_NODE = 179.4807
ARG_OF_PERICENTER = 122.6940
MEAN_ANOMALY   = 237.5303

EPHEMERIS_TYPE = 0
CLASSIFICATION_TYPE = U
NORAD_CAT_ID   = 82448
ELEMENT_SET_NO = 999
REV_AT_EPOCH   = 44262
BSTAR          = .45792E-3
MEAN_MOTION_DOT = .6402E-4
MEAN_MOTION_DDOT = 0

CCSDS_OMM_VERS = 2.0
CREATION_DATE  = 
ORIGINATOR     = 

OBJECT_NAME    = UNKNOWN
OBJECT_ID      = 
CENTER_NAME    = EARTH
REF_FRAME      = TEME
TIME_SYSTEM    = UTC
MEAN_ELEMENT_THEORY = SGP/SGP4

EPOCH          = 2026-01-19T14:28:23.612448
MEAN_MOTION    = 12.39704815
ECCENTRICITY   = .0093469
INCLINATION    = 102.1836
RA_OF_ASC_NODE = 340.9520
ARG_OF_PERICENTER = 137.0852
MEAN_ANOMALY   = 223.7551

EPHEMERIS_TYPE = 0
CLASSIFICATION_TYPE = U
NORAD_CAT_ID   = 82453
ELEMENT_SET_NO = 999
REV_AT_EPOCH   = 55075
BSTAR          = .2364E-3
MEAN_MOTION_DOT = -.13E-6
MEAN_MOTION_DDOT = 0

CCSDS_OMM_VERS = 2.0
CREATION_DATE  = 
ORIGINATOR     = 

OBJECT_NAME    = UNKNOWN
OBJECT_ID      = 
CENTER_NAME    = EARTH
REF_FRAME      = TEME
TIME_SYSTEM    = UTC
MEAN_ELEMENT_THEORY = SGP/SGP4

EPOCH          = 2026-01-19T10:37:53.933376
MEAN_MOTION    = 14.23189959
ECCENTRICITY   = .0056475
INCLINATION    = 66.5124
RA_OF_ASC_NODE = 85.2499
ARG_OF_PERICENTER = 340.6430
MEAN_ANOMALY   = 19.2517

EPHEMERIS_TYPE = 0
CLASSIFICATION_TYPE = U
NORAD_CAT_ID   = 82458
ELEMENT_SET_NO = 999
REV_AT_EPOCH   = 61540
BSTAR          = .13834E-2
MEAN_MOTION_DOT = .3099E-4
MEAN_MOTION_DDOT = 0

CCSDS_OMM_VERS = 2.0
CREATION_DATE  = 
ORIGINATOR     = 

OBJECT_NAME    = UNKNOWN
OBJECT_ID      = 
CENTER_NAME    = EARTH
REF_FRAME      = TEME
TIME_SYSTEM    = UTC
MEAN_ELEMENT_THEORY = SGP/SGP4

EPOCH          = 2026-01-16T12:00:10.992672
MEAN_MOTION    = 13.55813318
ECCENTRICITY   = .0045594
INCLINATION    = 99.3533
RA_OF_ASC_NODE = 41.3337
ARG_OF_PERICENTER = 106.9728
MEAN_ANOMALY   = 253.6415

EPHEMERIS_TYPE = 0
CLASSIFICATION_TYPE = U
NORAD_CAT_ID   = 82484
ELEMENT_SET_NO = 999
REV_AT_EPOCH   = 59534
BSTAR          = .23318E-3
MEAN_MOTION_DOT = .123E-5
MEAN_MOTION_DDOT = 0

CCSDS_OMM_VERS = 2.0
CREATION_DATE  = 
ORIGINATOR     = 

OBJECT_NAME    = UNKNOWN
OBJECT_ID      = 
CENTER_NAME    = EARTH
REF_FRAME      = TEME
TIME_SYSTEM    = UTC
MEAN_ELEMENT_THEORY = SGP/SGP4

EPOCH          = 2026-01-19T05:06:24.147072
MEAN_MOTION    = 14.87539697
ECCENTRICITY   = .0002492
INCLINATION    = 74.0087
RA_OF_ASC_NODE = 307.0947
ARG_OF_PERICENTER = 83.6408
MEAN_ANOMALY   = 276.5056

EPHEMERIS_TYPE = 0
CLASSIFICATION_TYPE = U
NORAD_CAT_ID   = 82494
ELEMENT_SET_NO = 999
REV_AT_EPOCH   = 9053
BSTAR          = .23196E-2
MEAN_MOTION_DOT = .21086E-3
MEAN_MOTION_DDOT = 0

CCSDS_OMM_VERS = 2.0
CREATION_DATE  = 
ORIGINATOR     = 

OBJECT_NAME    = UNKNOWN
OBJECT_ID      = 
CENTER_NAME    = EARTH
REF_FRAME      = TEME
TIME_SYSTEM    = UTC
MEAN_ELEMENT_THEORY = SGP/SGP4

EPOCH          = 2026-01-17T00:25:34.379328
MEAN_MOTION    = 14.18787304
ECCENTRICITY   = .0115367
INCLINATION    = 70.9668
RA_OF_ASC_NODE = 289.1757
ARG_OF_PERICENTER = 61.1040
MEAN_ANOMALY   = 300.1600

EPHEMERIS_TYPE = 0
CLASSIFICATION_TYPE = U
NORAD_CAT_ID   = 82500
ELEMENT_SET_NO = 999
REV_AT_EPOCH   = 62395
BSTAR          = .16322E-2
MEAN_MOTION_DOT = .358E-4
MEAN_MOTION_DDOT = 0

CCSDS_OMM_VERS = 2.0
CREATION_DATE  = 
ORIGINATOR     = 

OBJECT_NAME    = UNKNOWN
OBJECT_ID      = 
CENTER_NAME    = EARTH
REF_FRAME      = TEME
TIME_SYSTEM    = UTC
MEAN_ELEMENT_THEORY = SGP/SGP4

EPOCH          = 2026-01-18T16:12:50.004864
MEAN_MOTION    = 14.35321388
ECCENTRICITY   = .0136071
INCLINATION    = 73.2827
RA_OF_ASC_NODE = 110.8987
ARG_OF_PERICENTER = 238.2517
MEAN_ANOMALY   = 274.0103

EPHEMERIS_TYPE = 0
CLASSIFICATION_TYPE = U
NORAD_CAT_ID   = 82524
ELEMENT_SET_NO = 999
REV_AT_EPOCH   = 58233
BSTAR          = .27314E-2
MEAN_MOTION_DOT = .8673E-4
MEAN_MOTION_DDOT = 0

CCSDS_OMM_VERS = 2.0
CREATION_DATE  = 
ORIGINATOR     = 

OBJECT_NAME    = UNKNOWN
OBJECT_ID      = 
CENTER_NAME    = EARTH
REF_FRAME      = TEME
TIME_SYSTEM    = UTC
MEAN_ELEMENT_THEORY = SGP/SGP4

EPOCH          = 2026-01-14T01:33:11.155680
MEAN_MOTION    = 13.41142817
ECCENTRICITY   = .0239438
INCLINATION    = 99.7874
RA_OF_ASC_NODE = 101.4403
ARG_OF_PERICENTER = 161.9661
MEAN_ANOMALY   = 331.1755

EPHEMERIS_TYPE = 0
CLASSIFICATION_TYPE = U
NORAD_CAT_ID   = 82529
ELEMENT_SET_NO = 999
REV_AT_EPOCH   = 59407
BSTAR          = .43388E-3
MEAN_MOTION_DOT = .242E-5
MEAN_MOTION_DDOT = 0

CCSDS_OMM_VERS = 2.0
CREATION_DATE  = 
ORIGINATOR     = 

OBJECT_NAME    = UNKNOWN
OBJECT_ID      = 
CENTER_NAME    = EARTH
REF_FRAME      = TEME
TIME_SYSTEM    = UTC
MEAN_ELEMENT_THEORY = SGP/SGP4

EPOCH          = 2026-01-17T08:03:04.621824
MEAN_MOTION    = 13.90752550
ECCENTRICITY   = .00093
INCLINATION    = 99.9918
RA_OF_ASC_NODE = 327.5288
ARG_OF_PERICENTER = 214.5210
MEAN_ANOMALY   = 298.0582

EPHEMERIS_TYPE = 0
CLASSIFICATION_TYPE = U
NORAD_CAT_ID   = 82560
ELEMENT_SET_NO = 999
REV_AT_EPOCH   = 61681
BSTAR          = .81593E-3
MEAN_MOTION_DOT = .969E-5
MEAN_MOTION_DDOT = 0

