UNKNOWN                 
1 82381U          26019.11067387  .00022563  00000+0  27955-2 0  9990
2 82381  98.3953 250.6619 0010903  20.0574 340.1064 14.82657106516348
UNKNOWN                 
1 82402U          26019.30130713  .00007075  00000+0  50882-3 0  9996
2 82402  86.6660 139.3807 0008539  40.1726 320.0138 15.04068522460118
UNKNOWN                 
1 82432U          26016.43276129  .00001229  00000+0  26452-3 0  9993
2 82432  74.0067 274.4084 0054449  69.8652 290.8360 14.58714109487968
UNKNOWN                 
1 82448U          26018.87998225  .00006402  00000+0  45792-3 0  9994
2 82448  85.8725 179.4807 0010455 122.6940 237.5303 15.04231798442629
UNKNOWN                 
1 82453U          26019.60305107 -.00000013  00000+0  23640-3 0  9994
2 82453 102.1836 340.9520 0093469 137.0852 223.7551 12.39704815550752
UNKNOWN                 
1 82458U          26019.44298534  .00003099  00000+0  13834-2 0  9995
2 82458  66.5124  85.2499 0056475 340.6430  19.2517 14.23189959615409
UNKNOWN                 
1 82484U          26016.50012723  .00000123  00000+0  23318-3 0  9996
2 82484  99.3533  41.3337 0045594 106.9728 253.6415 13.55813318595341
UNKNOWN                 
1 82494U          26019.21277948  .00021086  00000+0  23196-2 0  9994
2 82494  74.0087 307.0947 0002492  83.6408 276.5056 14.87539697 90538
UNKNOWN                 
1 82500U          26017.01775902  .00003580  00000+0  16322-2 0  9993
2 82500  70.9668 289.1757 0115367  61.1040 300.1600 14.18787304623955
UNKNOWN                 
1 82524U          26018.67557876  .00008673  00000+0  27314-2 0  9991
2 82524  73.2827 110.8987 0136071 238.2517 274.0103 14.35321388582338
UNKNOWN                 
1 82529U          26014.06471245  .00000242  00000+0  43388-3 0  9994
2 82529  99.7874 101.4403 0239438 161.9661 331.1755 13.41142817594076
UNKNOWN                 
1 82560U          26017.33547016  .00000969  00000+0  81593-3 0  9998
2 82560  99.9918 327.5288 0009300 214.5210 298.0582 13.90752550616813
